SL-16 R/B               
1 28353U 04021B   25145.22715450  .00000068  00000+0  60326-4 0  9995
2 28353  70.9999 117.8283 0003139 136.2280 223.9091 14.14551688 82047
CZ-4B R/B               
1 28415U 04035C   25144.71185290  .00005037  00000+0  20825-3 0  9995
2 28415  97.3808 177.9884 0034157 269.3469  90.3854 15.23900711135838
CZ-2C R/B               
1 28480U 04046B   25144.79219438  .00000135  00000+0  66008-4 0  9997
2 28480  98.1942  72.8469 0138531 289.4184  69.2071 14.26826738 67308
ARIANE 5 R/B            
1 28499U 04049H   25144.87392788  .00001017  00000+0  12051-3 0  9997
2 28499  98.2315 298.2918 0084909 206.0831 153.6093 14.84462113102959
CZ-2D R/B               
1 28738U 05024B   25145.00729285  .00015605  00000+0  35548-3 0  9993
2 28738  97.3672 148.8222 0006490  22.3372 337.8157 15.43006349 95079
ALOS (DAICHI)           
1 28931U 06002A   25145.35168176  .00001375  00000+0  24478-3 0  9998
2 28931  98.0835  98.7683 0002186  97.6454 262.5000 14.68661178 31525
H-2A R/B                
1 28932U 06002B   25144.91098393  .00006441  00000+0  37730-3 0  9997
2 28932  98.2095 264.2577 0060125 139.3814 221.1922 15.10658534 50760
RESURS-DK 1             
1 29228U 06021A   25145.57172699  .00001974  00000+0  12459-3 0  9999
2 29228  69.9340 261.1205 0006355 226.2560 133.8080 15.10890096 44005
GENESIS 1               
1 29252U 06029A   25145.20982933  .00189608  20084-4  61059-3 0  9994
2 29252  64.4989  60.2882 0026169 283.4963  76.3279 15.90151337 43878
CZ-4B R/B               
1 29507U 06046C   25145.46421287  .00004174  00000+0  23259-3 0  9999
2 29507  97.5965 186.1414 0035886 180.8918 179.2256 15.13616357 16441
CZ-2C R/B               
1 31114U 07010B   25145.07739206  .00000069  00000+0  50520-4 0  9999
2 31114  98.3765 268.1338 0060004  54.3138 306.3604 14.20122829938761
COSMO-SKYMED 1          
1 31598U 07023A   25145.51375415  .00000655  00000+0  75570-4 0  9999
2 31598  97.8873 329.9809 0000169 153.0129 207.1096 14.89008806971913
GENESIS 2               
1 31789U 07028A   25145.43041072  .00079568  00000+0  51278-3 0  9993
2 31789  64.4745 111.8748 0021256 311.8965  48.0372 15.75389762990587
COSMOS 2428             
1 31792U 07029A   25145.53058024  .00000123  00000+0  91753-4 0  9998
2 31792  70.9354  88.2368 0005640 286.8177  73.2325 14.12847667923474
SL-16 R/B               
1 31793U 07029B   25144.81528050  .00000240  00000+0  14916-3 0  9995
2 31793  70.9761  59.5911 0001618 269.4515 147.1306 14.14780457924517
KORONAS-FOTON           
1 33504U 09003A   25144.71961748  .00007390  00000+0  20656-3 0  9996
2 33504  82.4344 214.4678 0013786 112.0012 248.2698 15.36404182901289
CZ-2C R/B               
1 37731U 11030B   25145.17272035  .00000843  00000+0  11547-3 0  9995
2 37731  97.8138 104.2645 0052791 207.7422 162.7372 14.80162668747401
H-2A R/B                
1 38341U 12025E   25144.91534637  .00002462  00000+0  23891-3 0  9992
2 38341  98.4368  85.2506 0046620 174.3112 185.8645 14.92905654705107
SHIJIAN-16 (SJ-16)      
1 39358U 13057A   25145.51717910  .00001620  00000+0  16503-3 0  9998
2 39358  74.9726  10.1417 0016280  94.0798 266.2250 14.91320149628602
SL-4 R/B                
1 39679U 14021B   25144.71472440  .00011638  00000+0  32181-3 0  9993
2 39679  51.6082 297.5731 0114135 136.2809 224.7281 15.31171499611898
ALOS-2                  
1 39766U 14029A   25145.53530503  .00001460  00000+0  20239-3 0  9997
2 39766  97.9229 243.2626 0001615  96.7954 263.3441 14.79475075594290
YAOGAN-29               
1 41038U 15069A   25145.51462182  .00000430  00000+0  60121-4 0  9993
2 41038  98.0352 167.8266 0001640 148.3695 211.7617 14.82619506513172
ASTRO-H (HITOMI)        
1 41337U 16012A   25144.94617474  .00002569  00000+0  15724-3 0  9999
2 41337  31.0008  56.6242 0010247 312.7953  47.1822 15.07935475508587
HXMT (HUIYAN)           
1 42758U 17034A   25145.47387498  .00003120  00000+0  18050-3 0  9990
2 42758  43.0134 173.9357 0035896 218.2754 141.5543 15.13662181438831
CZ-2C R/B               
1 43521U 18054D   25145.18703652  .00031668  00000+0  51264-3 0  9996
2 43521  35.1390  77.8646 0033571  31.5653 328.7078 15.51139669383575
SAOCOM 1A               
1 43641U 18076A   25145.49048121  .00000389  00000+0  55433-4 0  9999
2 43641  97.8889 332.7997 0001475  89.0198 271.1184 14.82155092358671
H-2A R/B                
1 43682U 18084L   25145.14473430  .00009677  00000+0  33121-3 0  9998
2 43682  98.8731 298.9918 0031688 295.6871  64.1094 15.30042525361518
SAOCOM 1B               
1 46265U 20059A   25145.52173509  .00000393  00000+0  55958-4 0  9998
2 46265  97.8888 331.9336 0001440  88.9576 271.1802 14.82155097256076
CSS (TIANHE)            
1 48274U 21035A   25145.51103245  .00014645  00000+0  16390-3 0  9995
2 48274  41.4630 158.2294 0005110 334.2991  25.7594 15.62400414232617
COSMOS 2550             
1 48865U 21056A   25145.56069949  .00002472  00000+0  80973-4 0  9995
2 48865  67.1414 192.5445 0008361 269.7680  90.2517 15.33821315219280
CZ-2C R/B               
1 52794U 22058K   25144.94688729  .00018230  00000+0  44380-3 0  9998
2 52794  50.1949 344.1190 0057490  81.0142 279.7323 15.39247916165473
GSLV R/B                
1 54149U 22138AN  25144.82172558  .00002477  00000+0  22440-3 0  9997
2 54149  87.3780 263.0868 0024678 117.7609 242.6128 14.94715464140756
XRISM                   
1 57800U 23137A   25144.94642873  .00004303  00000+0  26772-3 0  9991
2 57800  31.0029 345.5875 0008257  18.7326 341.3614 15.07908694 94120
ACS3                    
1 59588U 24077B   25145.02286187  .00007733  00000+0  76614-2 0  9991
2 59588  97.4803 144.2544 0052451  82.9859 277.7259 13.77903580 54304
